CUPID                   
1 49264U 21088E   26068.66993977  .00009454  00000+0  38662-3 0  9991
2 49264  97.3985 131.0756 0013746  59.9938 300.2662 15.24473777245013
STARLINK-30105          
1 57433U 23105D   26068.28525767  .00000208  00000+0  17084-4 0  9990
2 57433  43.0064  33.1157 0001077 264.5620  95.5109 15.27578600148262
